NUSAT-50 (NANCY ROMAN)  
1 60493U 24149AB  26068.80227738  .00012094  00000+0  42252-3 0  9994
2 60493  97.3817 150.7693 0002523 238.0469 122.0527 15.29713355 86930
STARLINK-32773          
1 62571U 25006T   26068.03078091  .00029551  00000+0  10784-2 0  9997
2 62571  43.0026 296.1473 0002439 275.0117  85.0457 15.27599857 64761
