[{"OBJECT_NAME":"NUSAT-50 (NANCY ROMAN)","OBJECT_ID":"2024-149AB","EPOCH":"2026-03-09T19:15:16.765632","MEAN_MOTION":15.29713355,"ECCENTRICITY":0.00025229,"INCLINATION":97.3817,"RA_OF_ASC_NODE":150.7693,"ARG_OF_PERICENTER":238.0469,"MEAN_ANOMALY":122.0527,"EPHEMERIS_TYPE":0,"CLASSIFICATION_TYPE":"U","NORAD_CAT_ID":60493,"ELEMENT_SET_NO":999,"REV_AT_EPOCH":8693,"BSTAR":0.0004225155,"MEAN_MOTION_DOT":0.00012094,"MEAN_MOTION_DDOT":0},{"OBJECT_NAME":"STARLINK-32773","OBJECT_ID":"2025-006T","EPOCH":"2026-03-09T00:44:19.470624","MEAN_MOTION":15.27599857,"ECCENTRICITY":0.00024393,"INCLINATION":43.0026,"RA_OF_ASC_NODE":296.1473,"ARG_OF_PERICENTER":275.0117,"MEAN_ANOMALY":85.0457,"EPHEMERIS_TYPE":0,"CLASSIFICATION_TYPE":"U","NORAD_CAT_ID":62571,"ELEMENT_SET_NO":999,"REV_AT_EPOCH":6476,"BSTAR":0.0010783774,"MEAN_MOTION_DOT":0.00029551,"MEAN_MOTION_DDOT":0}]
